{
  "type": "FeatureCollection",
  "features": [
    {
      "type": "Feature",
      "properties": {
        "norad_id": 66610,
        "name": "STARLINK-35680",
        "group": "last-30-days",
        "lat": -23.525853237094374,
        "lon": 90.49801246401184,
        "alt_km": 348.02946554632217,
        "timestamp": "2025-12-04T07:39:35.000324+00:00",
        "meta_object_name": "STARLINK-35680",
        "meta_object_id": "2025-270Y",
        "meta_epoch": "2025-12-03T18:34:33.430656",
        "meta_mean_motion": 15.75731525,
        "meta_eccentricity": 0.0004622,
        "meta_inclination": 42.9987,
        "meta_ra_of_asc_node": 245.9546,
        "meta_arg_of_pericenter": 334.0832,
        "meta_mean_anomaly": 25.9805,
        "meta_ephemeris_type": 0,
        "meta_classification_type": "U",
        "meta_norad_cat_id": 66610,
        "meta_element_set_no": 999,
        "meta_rev_at_epoch": 305,
        "meta_bstar": -0.0030550834,
        "meta_mean_motion_dot": -0.00459412,
        "meta_mean_motion_ddot": 0,
        "tle_line1": "1 66610U 25270Y   25337.77399804 -.00459412  00000+0 -30551-2 0  9994",
        "tle_line2": "2 66610  42.9987 245.9546 0004622 334.0832  25.9805 15.75731525  3050"
      },
      "geometry": {
        "type": "Point",
        "coordinates": [
          90.49801246401184,
          -23.525853237094374
        ]
      }
    },
    {
      "type": "Feature",
      "properties": {
        "norad_id": 66611,
        "name": "STARLINK-35583",
        "group": "last-30-days",
        "lat": -23.505827460734317,
        "lon": 90.46824230080513,
        "alt_km": 347.87978815722545,
        "timestamp": "2025-12-04T07:39:35.000333+00:00",
        "meta_object_name": "STARLINK-35583",
        "meta_object_id": "2025-270Z",
        "meta_epoch": "2025-12-03T18:34:33.676032",
        "meta_mean_motion": 15.75927889,
        "meta_eccentricity": 0.00027595,
        "meta_inclination": 42.9982,
        "meta_ra_of_asc_node": 245.9531,
        "meta_arg_of_pericenter": 326.8108,
        "meta_mean_anomaly": 33.2588,
        "meta_ephemeris_type": 0,
        "meta_classification_type": "U",
        "meta_norad_cat_id": 66611,
        "meta_element_set_no": 999,
        "meta_rev_at_epoch": 305,
        "meta_bstar": -0.0055666969,
        "meta_mean_motion_dot": -0.00809515,
        "meta_mean_motion_ddot": 0,
        "tle_line1": "1 66611U 25270Z   25337.77400088 -.00809515  00000+0 -55667-2 0  9990",
        "tle_line2": "2 66611  42.9982 245.9531 0002759 326.8108  33.2588 15.75927889  3054"
      },
      "geometry": {
        "type": "Point",
        "coordinates": [
          90.46824230080513,
          -23.505827460734317
        ]
      }
    },
    {
      "type": "Feature",
      "properties": {
        "norad_id": 66612,
        "name": "STARLINK-36039",
        "group": "last-30-days",
        "lat": -27.944123647375385,
        "lon": 97.31899125977085,
        "alt_km": 341.411621469073,
        "timestamp": "2025-12-04T07:39:35.000343+00:00",
        "meta_object_name": "STARLINK-36039",
        "meta_object_id": "2025-270AA",
        "meta_epoch": "2025-12-03T10:57:48.968928",
        "meta_mean_motion": 15.77433241,
        "meta_eccentricity": 0.00040224,
        "meta_inclination": 43.0004,
        "meta_ra_of_asc_node": 247.8729,
        "meta_arg_of_pericenter": 347.0774,
        "meta_mean_anomaly": 12.9993,
        "meta_ephemeris_type": 0,
        "meta_classification_type": "U",
        "meta_norad_cat_id": 66612,
        "meta_element_set_no": 999,
        "meta_rev_at_epoch": 289,
        "meta_bstar": 0.0006481925,
        "meta_mean_motion_dot": 0.00111686,
        "meta_mean_motion_ddot": 0,
        "tle_line1": "1 66612U 25270AA  25337.45681677  .00111686  00000+0  64819-3 0  9994",
        "tle_line2": "2 66612  43.0004 247.8729 0004022 347.0774  12.9993 15.77433241  2892"
      },
      "geometry": {
        "type": "Point",
        "coordinates": [
          97.31899125977085,
          -27.944123647375385
        ]
      }
    },
    {
      "type": "Feature",
      "properties": {
        "norad_id": 66613,
        "name": "STARLINK-36037",
        "group": "last-30-days",
        "lat": -29.01857356066444,
        "lon": 99.15080077167616,
        "alt_km": 341.52856170298946,
        "timestamp": "2025-12-04T07:39:35.000352+00:00",
        "meta_object_name": "STARLINK-36037",
        "meta_object_id": "2025-270AB",
        "meta_epoch": "2025-12-03T10:57:19.045152",
        "meta_mean_motion": 15.77412165,
        "meta_eccentricity": 0.0004122,
        "meta_inclination": 43.0001,
        "meta_ra_of_asc_node": 247.8703,
        "meta_arg_of_pericenter": 349.4174,
        "meta_mean_anomaly": 10.6608,
        "meta_ephemeris_type": 0,
        "meta_classification_type": "U",
        "meta_norad_cat_id": 66613,
        "meta_element_set_no": 999,
        "meta_rev_at_epoch": 289,
        "meta_bstar": 0.00072767216,
        "meta_mean_motion_dot": 0.00125531,
        "meta_mean_motion_ddot": 0,
        "tle_line1": "1 66613U 25270AB  25337.45647043  .00125531  00000+0  72767-3 0  9999",
        "tle_line2": "2 66613  43.0001 247.8703 0004122 349.4174  10.6608 15.77412165  2893"
      },
      "geometry": {
        "type": "Point",
        "coordinates": [
          99.15080077167616,
          -29.01857356066444
        ]
      }
    },
    {
      "type": "Feature",
      "properties": {
        "norad_id": 66614,
        "name": "STARLINK-36040",
        "group": "last-30-days",
        "lat": -27.920144020210877,
        "lon": 97.28510754547891,
        "alt_km": 347.0946209618751,
        "timestamp": "2025-12-04T07:39:35.000361+00:00",
        "meta_object_name": "STARLINK-36040",
        "meta_object_id": "2025-270AC",
        "meta_epoch": "2025-12-03T18:32:36.736224",
        "meta_mean_motion": 15.75809834,
        "meta_eccentricity": 0.00013637,
        "meta_inclination": 42.9975,
        "meta_ra_of_asc_node": 245.9411,
        "meta_arg_of_pericenter": 296.187,
        "meta_mean_anomaly": 63.8859,
        "meta_ephemeris_type": 0,
        "meta_classification_type": "U",
        "meta_norad_cat_id": 66614,
        "meta_element_set_no": 999,
        "meta_rev_at_epoch": 278,
        "meta_bstar": -0.0049021445,
        "meta_mean_motion_dot": -0.00716645,
        "meta_mean_motion_ddot": 0,
        "tle_line1": "1 66614U 25270AC  25337.77264741 -.00716645  00000+0 -49021-2 0  9995",
        "tle_line2": "2 66614  42.9975 245.9411 0001363 296.1870  63.8859 15.75809834  2789"
      },
      "geometry": {
        "type": "Point",
        "coordinates": [
          97.28510754547891,
          -27.920144020210877
        ]
      }
    },
    {
      "type": "Feature",
      "properties": {
        "norad_id": 66615,
        "name": "STARLINK-35988",
        "group": "last-30-days",
        "lat": -30.030249503861622,
        "lon": 100.95140309778002,
        "alt_km": 341.6613805102015,
        "timestamp": "2025-12-04T07:39:35.000373+00:00",
        "meta_object_name": "STARLINK-35988",
        "meta_object_id": "2025-270AD",
        "meta_epoch": "2025-12-03T10:56:49.071264",
        "meta_mean_motion": 15.7738351,
        "meta_eccentricity": 0.0003977,
        "meta_inclination": 43.0005,
        "meta_ra_of_asc_node": 247.8673,
        "meta_arg_of_pericenter": 351.7564,
        "meta_mean_anomaly": 8.324,
        "meta_ephemeris_type": 0,
        "meta_classification_type": "U",
        "meta_norad_cat_id": 66615,
        "meta_element_set_no": 999,
        "meta_rev_at_epoch": 273,
        "meta_bstar": 0.00069290673,
        "meta_mean_motion_dot": 0.00119264,
        "meta_mean_motion_ddot": 0,
        "tle_line1": "1 66615U 25270AD  25337.45612351  .00119264  00000+0  69291-3 0  9999",
        "tle_line2": "2 66615  43.0005 247.8673 0003977 351.7564   8.3240 15.77383510  2731"
      },
      "geometry": {
        "type": "Point",
        "coordinates": [
          100.95140309778002,
          -30.030249503861622
        ]
      }
    },
    {
      "type": "Feature",
      "properties": {
        "norad_id": 66616,
        "name": "STARLINK-35391",
        "group": "last-30-days",
        "lat": -29.027608217579395,
        "lon": 99.173663996508,
        "alt_km": 344.99736511725314,
        "timestamp": "2025-12-04T07:39:35.000383+00:00",
        "meta_object_name": "STARLINK-35391",
        "meta_object_id": "2025-270AE",
        "meta_epoch": "2025-12-03T18:32:06.642240",
        "meta_mean_motion": 15.7580901,
        "meta_eccentricity": 0.00032408,
        "meta_inclination": 42.9974,
        "meta_ra_of_asc_node": 245.9395,
        "meta_arg_of_pericenter": 227.2502,
        "meta_mean_anomaly": 132.8095,
        "meta_ephemeris_type": 0,
        "meta_classification_type": "U",
        "meta_norad_cat_id": 66616,
        "meta_element_set_no": 999,
        "meta_rev_at_epoch": 305,
        "meta_bstar": -0.0047598079,
        "meta_mean_motion_dot": -0.00697893,
        "meta_mean_motion_ddot": 0,
        "tle_line1": "1 66616U 25270AE  25337.77229910 -.00697893  00000+0 -47598-2 0  9996",
        "tle_line2": "2 66616  42.9974 245.9395 0003240 227.2502 132.8095 15.75809010  3050"
      },
      "geometry": {
        "type": "Point",
        "coordinates": [
          99.173663996508,
          -29.027608217579395
        ]
      }
    }
  ]
}